NORAD_CAT_ID,OBJECT_NAME,OBJECT_TYPE,EPOCH,MEAN_MOTION,ECCENTRICITY,INCLINATION,RA_OF_ASC_NODE,ARG_OF_PERICENTER,MEAN_ANOMALY,BSTAR,MEAN_MOTION_DOT,MEAN_MOTION_DDOT,TLE_LINE0,TLE_LINE1,TLE_LINE2,SEMIMAJOR_AXIS,PERIOD,APOGEE,PERIGEE,DECAYED
55751.0,STARLINK-5577,PAYLOAD,2024-02-27 19:49:12,14.98331014,0.0002875,70.001,312.5314,267.5293,92.5537,4.254e-06,-4.2e-07,0.0,0 STARLINK-5577,1 55751U 23028L   24058.82584312 -.00000042  00000-0  42540-5 0  9997,2 55751  70.0010 312.5314 0002875 267.5293  92.5537 14.98331014 55069,6950.19,96.107,574.053,570.057,0.0
55751.0,STARLINK-5577,PAYLOAD,2024-02-27 23:01:28,14.98334743,0.0002912,70.0001,312.1935,269.4435,90.6391,1.5383e-05,9.1e-07,0.0,0 STARLINK-5577,1 55751U 23028L   24058.95936026  .00000091  00000-0  15383-4 0  9991,2 55751  70.0001 312.1935 0002912 269.4435  90.6391 14.98334743 55086,6950.178,96.107,574.067,570.019,0.0
55751.0,STARLINK-5577,PAYLOAD,2024-02-28 02:13:44,14.98331126,0.0003178,70.0014,311.8578,247.4871,112.5952,2.2041e-06,-6.7e-07,0.0,0 STARLINK-5577,1 55751U 23028L   24059.09287984 -.00000067  00000-0  22041-5 0  9993,2 55751  70.0014 311.8578 0003178 247.4871 112.5952 14.98331126 55106,6950.189,96.107,574.263,569.846,0.0
55751.0,STARLINK-5577,PAYLOAD,2024-02-28 19:51:14,14.98323649,0.0002922,69.9997,310.0046,270.2151,89.8673,6.2841e-05,6.57e-06,0.0,0 STARLINK-5577,1 55751U 23028L   24059.82724604  .00000657  00000-0  62841-4 0  9994,2 55751  69.9997 310.0046 0002922 270.2151  89.8673 14.98323649 55214,6950.213,96.107,574.108,570.047,0.0
55751.0,STARLINK-5577,PAYLOAD,2024-02-28 21:27:22,14.98323341,0.0002815,70.0002,309.8366,268.0223,92.0614,6.864e-05,7.26e-06,0.0,0 STARLINK-5577,1 55751U 23028L   24059.89400638  .00000726  00000-0  68640-4 0  9999,2 55751  70.0002 309.8366 0002815 268.0223  92.0614 14.98323341 55222,6950.213,96.107,574.035,570.122,0.0
55751.0,STARLINK-5577,PAYLOAD,2024-02-29 10:16:26,14.98328355,0.0002824,69.9999,308.4896,270.8312,89.2524,3.5332e-05,3.29e-06,0.0,0 STARLINK-5577,1 55751U 23028L   24060.42808561  .00000329  00000-0  35332-4 0  9998,2 55751  69.9999 308.4896 0002824 270.8312  89.2524 14.98328355 55304,6950.198,96.107,574.026,570.1,0.0
55751.0,STARLINK-5577,PAYLOAD,2024-02-29 19:53:14,14.9833358,0.0002848,69.9999,307.4799,271.7091,88.3742,6.0536e-05,6.29e-06,0.0,0 STARLINK-5577,1 55751U 23028L   24060.82864097  .00000629  00000-0  60536-4 0  9995,2 55751  69.9999 307.4799 0002848 271.7091  88.3742 14.98333580 55369,6950.182,96.107,574.026,570.067,0.0
55751.0,STARLINK-5577,PAYLOAD,2024-02-29 23:05:30,14.98336047,0.0002853,69.9999,307.143,270.8811,89.2022,3.1326e-05,2.81e-06,0.0,0 STARLINK-5577,1 55751U 23028L   24060.96215980  .00000281  00000-0  31326-4 0  9990,2 55751  69.9999 307.1430 0002853 270.8811  89.2022 14.98336047 55388,6950.174,96.107,574.022,570.056,0.0
55751.0,STARLINK-5577,PAYLOAD,2024-03-01 02:17:46,14.983364,0.000286,69.9999,306.8063,271.0561,89.027,3.4625e-05,3.2e-06,0.0,0 STARLINK-5577,1 55751U 23028L   24061.09567906  .00000320  00000-0  34625-4 0  9992,2 55751  69.9999 306.8063 0002860 271.0561  89.0270 14.98336400 55408,6950.173,96.107,574.026,570.05,0.0
55751.0,STARLINK-5577,PAYLOAD,2024-03-01 19:55:15,14.98329742,0.00029,69.9999,304.9549,271.0043,89.0784,5.7946e-05,5.98e-06,0.0,0 STARLINK-5577,1 55751U 23028L   24061.83004159  .00000598  00000-0  57946-4 0  9998,2 55751  69.9999 304.9549 0002900 271.0043  89.0784 14.98329742 55519,6950.194,96.107,574.074,570.043,0.0
55751.0,STARLINK-5577,PAYLOAD,2024-03-01 21:31:23,14.98329625,0.0002901,69.9999,304.7865,270.9628,89.1198,5.6056e-05,5.76e-06,0.0,0 STARLINK-5577,1 55751U 23028L   24061.89680174  .00000576  00000-0  56056-4 0  9998,2 55751  69.9999 304.7865 0002901 270.9628  89.1198 14.98329625 55527,6950.194,96.107,574.075,570.043,0.0
55751.0,STARLINK-5577,PAYLOAD,2024-03-02 02:19:47,14.98331682,0.0002885,69.9998,304.2815,271.0611,89.0218,7.6011e-05,8.14e-06,0.0,0 STARLINK-5577,1 55751U 23028L   24062.09707978  .00000814  00000-0  76011-4 0  9991,2 55751  69.9998 304.2815 0002885 271.0611  89.0218 14.98331682 55552,6950.188,96.107,574.058,570.048,0.0
55751.0,STARLINK-5577,PAYLOAD,2024-03-02 19:57:16,14.98333557,0.0002814,69.9998,302.43,271.0292,89.0544,-1.5129e-05,-2.74e-06,0.0,0 STARLINK-5577,1 55751U 23028L   24062.83144022 -.00000274  00000-0 -15129-4 0  9993,2 55751  69.9998 302.4300 0002814 271.0292  89.0544 14.98333557 55665,6950.182,96.107,574.003,570.091,0.0
55751.0,STARLINK-5577,PAYLOAD,2024-03-02 21:33:24,14.98333511,0.0002814,69.9997,302.2617,271.0483,89.0353,-1.5317e-05,-2.76e-06,0.0,0 STARLINK-5577,1 55751U 23028L   24062.89820007 -.00000276  00000-0 -15317-4 0  9994,2 55751  69.9997 302.2617 0002814 271.0483  89.0353 14.98333511 55674,6950.182,96.107,574.003,570.091,0.0
55751.0,STARLINK-5577,PAYLOAD,2024-03-03 02:21:48,14.98334206,0.000277,69.9998,301.7568,270.8403,89.2439,1.2799e-05,6e-07,0.0,0 STARLINK-5577,1 55751U 23028L   24063.09847848  .00000060  00000-0  12799-4 0  9999,2 55751  69.9998 301.7568 0002770 270.8403  89.2439 14.98334206 55707,6950.18,96.107,573.97,570.12,0.0
55751.0,STARLINK-5577,PAYLOAD,2024-03-03 19:59:17,14.98331002,0.000272,69.9995,299.9051,263.7755,96.3094,1.5438e-05,9.1e-07,0.0,0 STARLINK-5577,1 55751U 23028L   24063.83283872  .00000091  00000-0  15438-4 0  9999,2 55751  69.9995 299.9051 0002720 263.7755  96.3094 14.98331002 55814,6950.19,96.107,573.945,570.164,0.0
55751.0,STARLINK-5577,PAYLOAD,2024-03-03 21:35:25,14.98332772,0.0002706,69.9996,299.7368,263.567,96.5181,3.8796e-05,3.7e-06,0.0,0 STARLINK-5577,1 55751U 23028L   24063.89959751  .00000370  00000-0  38796-4 0  9993,2 55751  69.9996 299.7368 0002706 263.5670  96.5181 14.98332772 55827,6950.184,96.107,573.93,570.169,0.0
55751.0,STARLINK-5577,PAYLOAD,2024-03-04 08:48:21,14.98336559,0.00028,69.9989,298.5592,274.0395,86.0444,5.7557e-05,5.94e-06,0.0,0 STARLINK-5577,1 55751U 23028L   24064.36691404  .00000594  00000-0  57557-4 0  9998,2 55751  69.9989 298.5592 0002800 274.0395  86.0444 14.98336559 55891,6950.173,96.107,573.984,570.092,0.0
55751.0,STARLINK-5577,PAYLOAD,2024-03-04 20:01:17,14.98331725,0.0002785,69.9994,297.3782,272.9334,87.1506,5.362e-05,5.47e-06,0.0,0 STARLINK-5577,1 55751U 23028L   24064.83423381  .00000547  00000-0  53620-4 0  9992,2 55751  69.9994 297.3782 0002785 272.9334  87.1506 14.98331725 55966,6950.188,96.107,573.988,570.117,0.0
55751.0,STARLINK-5577,PAYLOAD,2024-03-04 21:37:25,14.9833155,0.0002775,69.9994,297.2098,272.7504,87.3337,5.2374e-05,5.32e-06,0.0,0 STARLINK-5577,1 55751U 23028L   24064.90099383  .00000532  00000-0  52374-4 0  9990,2 55751  69.9994 297.2098 0002775 272.7504  87.3337 14.98331550 55972,6950.188,96.107,573.982,570.124,0.0
55751.0,STARLINK-5577,PAYLOAD,2024-03-05 00:49:41,14.98333821,0.0002754,69.9996,296.874,270.7899,89.2945,5.367e-05,5.48e-06,0.0,0 STARLINK-5577,1 55751U 23028L   24065.03451230  .00000548  00000-0  53670-4 0  9995,2 55751  69.9996 296.8740 0002754 270.7899  89.2945 14.98333821 55996,6950.181,96.107,573.96,570.132,0.0
55751.0,STARLINK-5577,PAYLOAD,2024-03-05 20:03:19,14.98320159,0.0002564,69.9999,294.8544,262.6156,97.4712,2.0383e-05,1.5e-06,0.0,0 STARLINK-5577,1 55751U 23028L   24065.83564137  .00000150  00000-0  20383-4 0  9998,2 55751  69.9999 294.8544 0002564 262.6156  97.4712 14.98320159 56112,6950.223,96.108,573.87,570.306,0.0
55751.0,STARLINK-5577,PAYLOAD,2024-03-06 00:51:43,14.9832204,0.0002767,69.9997,294.3494,267.2885,92.7958,-2.4532e-05,-3.86e-06,0.0,0 STARLINK-5577,1 55751U 23028L   24066.03592224 -.00000386  00000-0 -24532-4 0  9992,2 55751  69.9997 294.3494 0002767 267.2885  92.7958 14.98322040 56148,6950.218,96.108,574.006,570.159,0.0
55751.0,STARLINK-5577,PAYLOAD,2024-03-06 20:05:22,14.98308761,0.0002746,69.9998,292.3302,277.7003,82.3844,-0.0002038,-2.522e-05,0.0,0 STARLINK-5577,1 55751U 23028L   24066.83706395 -.00002522  00000-0 -20380-3 0  9996,2 55751  69.9998 292.3302 0002746 277.7003  82.3844 14.98308761 56266,6950.259,96.108,574.032,570.215,0.0
55751.0,STARLINK-5577,PAYLOAD,2024-03-07 00:53:45,14.98324205,0.0002827,70.0002,291.8279,272.0578,88.0257,-0.00021171,-2.618e-05,0.0,0 STARLINK-5577,1 55751U 23028L   24067.03733523 -.00002618  00000-0 -21171-3 0  9997,2 55751  70.0002 291.8279 0002827 272.0578  88.0257 14.98324205 56292,6950.211,96.107,574.041,570.111,0.0
55751.0,STARLINK-5577,PAYLOAD,2024-03-08 00:55:46,14.98328502,0.0003043,69.9989,289.2998,272.287,87.7941,0.00013728,1.545e-05,0.0,0 STARLINK-5577,1 55751U 23028L   24068.03872791  .00001545  00000-0  13728-3 0  9994,2 55751  69.9989 289.2998 0003043 272.2870  87.7941 14.98328502 56447,6950.198,96.107,574.177,569.948,0.0
55751.0,STARLINK-5577,PAYLOAD,2024-03-08 13:44:51,14.98126068,0.0002234,69.9984,287.9531,258.6671,101.4237,0.0036054,0.00042962,0.0,0 STARLINK-5577,1 55751U 23028L   24068.57281655  .00042962  00000-0  36054-2 0  9990,2 55751  69.9984 287.9531 0002234 258.6671 101.4237 14.98126068 56522,6950.824,96.12,574.241,571.136,0.0
55751.0,STARLINK-5577,PAYLOAD,2024-03-09 00:57:46,14.98348984,0.0002973,69.9985,286.7749,276.3586,83.7234,0.00010461,1.156e-05,0.0,0 STARLINK-5577,1 55751U 23028L   24069.04011621  .00001156  00000-0  10461-3 0  9992,2 55751  69.9985 286.7749 0002973 276.3586  83.7234 14.98348984 56592,6950.134,96.106,574.065,569.933,0.0
55751.0,STARLINK-5577,PAYLOAD,2024-03-09 07:22:18,14.98338907,0.000298,69.9985,286.1013,272.907,87.1748,0.00013475,1.516e-05,0.0,0 STARLINK-5577,1 55751U 23028L   24069.30716092  .00001516  00000-0  13475-3 0  9993,2 55751  69.9985 286.1013 0002980 272.9070  87.1748 14.98338907 56635,6950.165,96.106,574.101,569.959,0.0
55751.0,STARLINK-5577,PAYLOAD,2024-03-09 13:46:51,14.98338382,0.0002813,69.9988,285.4279,271.1529,88.9308,5.6023e-05,5.76e-06,0.0,0 STARLINK-5577,1 55751U 23028L   24069.57420175  .00000576  00000-0  56023-4 0  9998,2 55751  69.9988 285.4279 0002813 271.1529  88.9308 14.98338382 56671,6950.167,96.106,573.987,570.077,0.0
